24793,IRIDIUM 7,1997,100.3,-1.0,-,86.39,Inactive,0,LEO,USA,USA,Unknown,Unknown,Unknown,1 24793U 97020B   25015.62704531  .00000514  00000+0  17133-3 0  9991,2 24793  86.3940 240.7961 0001707  88.3084 271.8308 14.35716077450001,14.35716077,0.0001707,LEO
24795,IRIDIUM 5,1997,96.52,-1.0,-,86.39,Inactive,0,LEO,USA,USA,Unknown,Unknown,Unknown,1 24795U 97020D   25015.79651232  .00005337  00000+0  46385-3 0  9999,2 24795  86.3943 153.8642 0112576 325.3634  34.0295 14.91944455462752,14.91944455,0.0112576,LEO
24796,IRIDIUM 4,1997,100.23,-1.0,-,86.39,Inactive,0,LEO,USA,USA,Unknown,Unknown,Unknown,1 24796U 97020E   25015.56743161  .00000480  00000+0  15644-3 0  9996,2 24796  86.3938 237.7973 0001922  83.6059 276.5357 14.36627192450555,14.36627192,0.0001922,LEO
24836,IRIDIUM 914,1997,99.96,-1.0,-,86.39,Inactive,0,LEO,Kazakhstan,USA,Unknown,Unknown,Unknown,1 24836U 97030A   25015.71662733  .00000623  00000+0  18927-3 0  9990,2 24836  86.3915 246.7999 0002798  49.1166 311.0276 14.40601586447275,14.40601586,0.0002798,LEO
24841,IRIDIUM 16,1997,100.11,-1.0,-,86.4,Inactive,0,LEO,Kazakhstan,USA,Unknown,Unknown,Unknown,1 24841U 97030F   25015.17049199  .00000664  00000+0  21135-3 0  9991,2 24841  86.4019 269.5676 0002008 149.4471 210.6845 14.38465102445003,14.38465102,0.0002008,LEO
24842,IRIDIUM 911,1997,99.5,-1.0,-,86.44,Inactive,0,LEO,Kazakhstan,USA,Unknown,Unknown,Unknown,1 24842U 97030G   25015.75556009  .00000831  00000+0  22160-3 0  9994,2 24842  86.4443 268.2482 0012203 243.3603 116.6351 14.47297636453017,14.47297636,0.0012203,LEO
24870,IRIDIUM 17,1997,100.17,-1.0,-,86.4,Inactive,0,LEO,USA,USA,Unknown,Unknown,Unknown,1 24870U 97034B   25015.27211857  .00000757  00000+0  24603-3 0  9996,2 24870  86.3967 299.0859 0003122 113.8780 246.2745 14.37575172441618,14.37575172,0.0003122,LEO
24871,IRIDIUM 920,1997,99.91,-1.0,-,86.4,Inactive,0,LEO,USA,USA,Unknown,Unknown,Unknown,1 24871U 97034C   25015.77710257  .00000699  00000+0  21020-3 0  9995,2 24871  86.3965 278.4395 0009968 217.4093 142.6414 14.41282984444880,14.41282984,0.0009968,LEO
